{"type": "FeatureCollection", "features": [ {"type": "Feature", "properties": {"norad_id": 28649, "name": "IRS-P5 (CARTOSAT-1)", "group": "resource", "lat": -53.138909974301306, "lon": -165.8839532114618, "alt_km": 603.9593108403078, "timestamp": "2025-12-24T09:46:30.651896+00:00", "meta": {"OBJECT_NAME": "IRS-P5 (CARTOSAT-1)", "OBJECT_ID": "2005-017A", "EPOCH": "2025-12-24T02:17:04.480800", "MEAN_MOTION": 14.90440964, "ECCENTRICITY": 5.56e-05, "INCLINATION": 97.5482, "RA_OF_ASC_NODE": 24.0044, "ARG_OF_PERICENTER": 59.793, "MEAN_ANOMALY": 300.3343, "EPHEMERIS_TYPE": 0, "CLASSIFICATION_TYPE": "U", "NORAD_CAT_ID": 28649, "ELEMENT_SET_NO": 999, "REV_AT_EPOCH": 11773, "BSTAR": 0.0001693, "MEAN_MOTION_DOT": 1.598e-05, "MEAN_MOTION_DDOT": 0}, "tle": {"line1": "1 28649U 05017A   25358.09519075  .00001598  00000+0  16930-3 0  9995", "line2": "2 28649  97.5482  24.0044 0000556  59.7930 300.3343 14.90440964117735"}}, "geometry": {"type": "Point", "coordinates": [-165.8839532114618, -53.138909974301306]}}, {"type": "Feature", "properties": {"norad_id": 28893, "name": "SINAH 1", "group": "resource", "lat": -18.275179284182425, "lon": -55.753969668747345, "alt_km": 686.4335408150791, "timestamp": "2025-12-24T09:46:30.651907+00:00", "meta": {"OBJECT_NAME": "SINAH 1", "OBJECT_ID": "2005-043D", "EPOCH": "2025-12-24T02:18:43.687008", "MEAN_MOTION": 14.63973896, "ECCENTRICITY": 0.0015717, "INCLINATION": 98.2609, "RA_OF_ASC_NODE": 126.6843, "ARG_OF_PERICENTER": 103.8932, "MEAN_ANOMALY": 256.402, "EPHEMERIS_TYPE": 0, "CLASSIFICATION_TYPE": "U", "NORAD_CAT_ID": 28893, "ELEMENT_SET_NO": 999, "REV_AT_EPOCH": 7490, "BSTAR": 9.2313e-05, "MEAN_MOTION_DOT": 4.35e-06, "MEAN_MOTION_DDOT": 0}, "tle": {"line1": "1 28893U 05043D   25358.09633897  .00000435  00000+0  92313-4 0  9993", "line2": "2 28893  98.2609 126.6843 0015717 103.8932 256.4020 14.63973896 74908"}}, "geometry": {"type": "Point", "coordinates": [-55.753969668747345, -18.275179284182425]}}, {"type": "Feature", "properties": {"norad_id": 29079, "name": "EROS B", "group": "resource", "lat": -21.931974570657893, "lon": 118.5457548137292, "alt_km": 356.11017879954034, "timestamp": "2025-12-24T09:46:30.651919+00:00", "meta": {"OBJECT_NAME": "EROS B", "OBJECT_ID": "2006-014A", "EPOCH": "2025-12-24T03:45:28.842048", "MEAN_MOTION": 15.71937291, "ECCENTRICITY": 0.000416, "INCLINATION": 97.3457, "RA_OF_ASC_NODE": 115.3042, "ARG_OF_PERICENTER": 310.7357, "MEAN_ANOMALY": 49.3545, "EPHEMERIS_TYPE": 0, "CLASSIFICATION_TYPE": "U", "NORAD_CAT_ID": 29079, "ELEMENT_SET_NO": 999, "REV_AT_EPOCH": 9259, "BSTAR": 0.0014626, "MEAN_MOTION_DOT": 0.00194266, "MEAN_MOTION_DDOT": 0}, "tle": {"line1": "1 29079U 06014A   25358.15658382  .00194266  00000+0  14626-2 0  9997", "line2": "2 29079  97.3457 115.3042 0004160 310.7357  49.3545 15.71937291 92597"}}, "geometry": {"type": "Point", "coordinates": [118.5457548137292, -21.931974570657893]}}, {"type": "Feature", "properties": {"norad_id": 29228, "name": "RESURS-DK 1", "group": "resource", "lat": 5.1939268983654525, "lon": 73.58956577018282, "alt_km": 533.3557624704463, "timestamp": "2025-12-24T09:46:30.651930+00:00", "meta": {"OBJECT_NAME": "RESURS-DK 1", "OBJECT_ID": "2006-021A", "EPOCH": "2025-12-23T14:42:01.773792", "MEAN_MOTION": 15.122178, "ECCENTRICITY": 0.00068724, "INCLINATION": 69.9337, "RA_OF_ASC_NODE": 73.7385, "ARG_OF_PERICENTER": 249.2294, "MEAN_ANOMALY": 110.8136, "EPHEMERIS_TYPE": 0, "CLASSIFICATION_TYPE": "U", "NORAD_CAT_ID": 29228, "ELEMENT_SET_NO": 999, "REV_AT_EPOCH": 7602, "BSTAR": 0.00016371419, "MEAN_MOTION_DOT": 2.729e-05, "MEAN_MOTION_DDOT": 0}, "tle": {"line1": "1 29228U 06021A   25357.61252053  .00002729  00000+0  16371-3 0  9998", "line2": "2 29228  69.9337  73.7385 0006872 249.2294 110.8136 15.12217800 76022"}}, "geometry": {"type": "Point", "coordinates": [73.58956577018282, 5.1939268983654525]}}, {"type": "Feature", "properties": {"norad_id": 29268, "name": "ARIRANG-2 (KOMPSAT-2)", "group": "resource", "lat": 53.822526096923774, "lon": 17.150638835053098, "alt_km": 681.0879444724105, "timestamp": "2025-12-24T09:46:30.651941+00:00", "meta": {"OBJECT_NAME": "ARIRANG-2 (KOMPSAT-2)", "OBJECT_ID": "2006-031A", "EPOCH": "2025-12-24T04:53:32.779104", "MEAN_MOTION": 14.64503351, "ECCENTRICITY": 0.0013154, "INCLINATION": 97.8254, "RA_OF_ASC_NODE": 186.1176, "ARG_OF_PERICENTER": 269.7779, "MEAN_ANOMALY": 223.7072, "EPHEMERIS_TYPE": 0, "CLASSIFICATION_TYPE": "U", "NORAD_CAT_ID": 29268, "ELEMENT_SET_NO": 999, "REV_AT_EPOCH": 3586, "BSTAR": 9.2628e-05, "MEAN_MOTION_DOT": 4.46e-06, "MEAN_MOTION_DDOT": 0}, "tle": {"line1": "1 29268U 06031A   25358.20385161  .00000446  00000+0  92628-4 0  9990", "line2": "2 29268  97.8254 186.1176 0013154 269.7779 223.7072 14.64503351 35862"}}, "geometry": {"type": "Point", "coordinates": [17.150638835053098, 53.822526096923774]}}, {"type": "Feature", "properties": {"norad_id": 29709, "name": "LAPAN-TUBSAT", "group": "resource", "lat": -48.14678204995068, "lon": 159.62562833548066, "alt_km": 627.454572339182, "timestamp": "2025-12-24T09:46:30.651952+00:00", "meta": {"OBJECT_NAME": "LAPAN-TUBSAT", "OBJECT_ID": "2007-001A", "EPOCH": "2025-12-24T05:30:58.815360", "MEAN_MOTION": 14.85688168, "ECCENTRICITY": 0.00133, "INCLINATION": 98.1262, "RA_OF_ASC_NODE": 348.6229, "ARG_OF_PERICENTER": 40.0416, "MEAN_ANOMALY": 320.1776, "EPHEMERIS_TYPE": 0, "CLASSIFICATION_TYPE": "U", "NORAD_CAT_ID": 29709, "ELEMENT_SET_NO": 999, "REV_AT_EPOCH": 2517, "BSTAR": 9.2186e-05, "MEAN_MOTION_DOT": 7.43e-06, "MEAN_MOTION_DDOT": 0}, "tle": {"line1": "1 29709U 07001A   25358.22984740  .00000743  00000+0  92186-4 0  9997", "line2": "2 29709  98.1262 348.6229 0013300  40.0416 320.1776 14.85688168 25179"}}, "geometry": {"type": "Point", "coordinates": [159.62562833548066, -48.14678204995068]}}, {"type": "Feature", "properties": {"norad_id": 31113, "name": "HAIYANG-1B", "group": "resource", "lat": -20.72370519888147, "lon": -14.617309937443697, "alt_km": 784.8445549986764, "timestamp": "2025-12-24T09:46:30.651963+00:00", "meta": {"OBJECT_NAME": "HAIYANG-1B", "OBJECT_ID": "2007-010A", "EPOCH": "2025-12-23T22:07:32.109024", "MEAN_MOTION": 14.3096859, "ECCENTRICITY": 0.0013674, "INCLINATION": 98.3327, "RA_OF_ASC_NODE": 341.7386, "ARG_OF_PERICENTER": 6.0187, "MEAN_ANOMALY": 354.1158, "EPHEMERIS_TYPE": 0, "CLASSIFICATION_TYPE": "U", "NORAD_CAT_ID": 31113, "ELEMENT_SET_NO": 999, "REV_AT_EPOCH": 97556, "BSTAR": 5.6729e-05, "MEAN_MOTION_DOT": 1.08e-06, "MEAN_MOTION_DDOT": 0}, "tle": {"line1": "1 31113U 07010A   25357.92189941  .00000108  00000+0  56729-4 0  9993", "line2": "2 31113  98.3327 341.7386 0013674   6.0187 354.1158 14.30968590975562"}}, "geometry": {"type": "Point", "coordinates": [-14.617309937443697, -20.72370519888147]}}, {"type": "Feature", "properties": {"norad_id": 31598, "name": "COSMO-SKYMED 1", "group": "resource", "lat": -68.07113488524251, "lon": -16.249777920795047, "alt_km": 587.9367790967772, "timestamp": "2025-12-24T09:46:30.651974+00:00", "meta": {"OBJECT_NAME": "COSMO-SKYMED 1", "OBJECT_ID": "2007-023A", "EPOCH": "2025-12-24T03:50:49.854336", "MEAN_MOTION": 14.95848756, "ECCENTRICITY": 0.0001357, "INCLINATION": 97.884, "RA_OF_ASC_NODE": 183.635, "ARG_OF_PERICENTER": 78.4103, "MEAN_ANOMALY": 281.7269, "EPHEMERIS_TYPE": 0, "CLASSIFICATION_TYPE": "U", "NORAD_CAT_ID": 31598, "ELEMENT_SET_NO": 999, "REV_AT_EPOCH": 361, "BSTAR": 0.00030919, "MEAN_MOTION_DOT": 3.395e-05, "MEAN_MOTION_DDOT": 0}, "tle": {"line1": "1 31598U 07023A   25358.16029924  .00003395  00000+0  30919-3 0  9998", "line2": "2 31598  97.8840 183.6350 0001357  78.4103 281.7269 14.95848756  3611"}}, "geometry": {"type": "Point", "coordinates": [-16.249777920795047, -68.07113488524251]}}, {"type": "Feature", "properties": {"norad_id": 31698, "name": "TERRASAR-X", "group": "resource", "lat": 15.848905247371972, "lon": -174.25572543476304, "alt_km": 509.1160370023463, "timestamp": "2025-12-24T09:46:30.651985+00:00", "meta": {"OBJECT_NAME": "TERRASAR-X", "OBJECT_ID": "2007-026A", "EPOCH": "2025-12-23T12:30:19.023264", "MEAN_MOTION": 15.19149386, "ECCENTRICITY": 0.00017705, "INCLINATION": 97.4442, "RA_OF_ASC_NODE": 2.7437, "ARG_OF_PERICENTER": 81.4954, "MEAN_ANOMALY": 278.6481, "EPHEMERIS_TYPE": 0, "CLASSIFICATION_TYPE": "U", "NORAD_CAT_ID": 31698, "ELEMENT_SET_NO": 999, "REV_AT_EPOCH": 2655, "BSTAR": 4.2968524e-05, "MEAN_MOTION_DOT": 8.35e-06, "MEAN_MOTION_DDOT": 0}, "tle": {"line1": "1 31698U 07026A   25357.52105351  .00000835  00000+0  42969-4 0  9995", "line2": "2 31698  97.4442   2.7437 0001770  81.4954 278.6481 15.19149386 26559"}}, "geometry": {"type": "Point", "coordinates": [-174.25572543476304, 15.848905247371972]}}, {"type": "Feature", "properties": {"norad_id": 32060, "name": "WORLDVIEW-1 (WV-1)", "group": "resource", "lat": 25.377319249494523, "lon": 112.19201374076331, "alt_km": 491.2768155040303, "timestamp": "2025-12-24T09:46:30.652014+00:00", "meta": {"OBJECT_NAME": "WORLDVIEW-1 (WV-1)", "OBJECT_ID": "2007-041A", "EPOCH": "2025-12-24T01:47:01.893408", "MEAN_MOTION": 15.2393588, "ECCENTRICITY": 0.0003274, "INCLINATION": 97.3827, "RA_OF_ASC_NODE": 115.3904, "ARG_OF_PERICENTER": 359.1112, "MEAN_ANOMALY": 1.0119, "EPHEMERIS_TYPE": 0, "CLASSIFICATION_TYPE": "U", "NORAD_CAT_ID": 32060, "ELEMENT_SET_NO": 999, "REV_AT_EPOCH": 1620, "BSTAR": 0.00035094, "MEAN_MOTION_DOT": 8.417e-05, "MEAN_MOTION_DDOT": 0}, "tle": {"line1": "1 32060U 07041A   25358.07432747  .00008417  00000+0  35094-3 0  9993", "line2": "2 32060  97.3827 115.3904 0003274 359.1112   1.0119 15.23935880 16205"}}, "geometry": {"type": "Point", "coordinates": [112.19201374076331, 25.377319249494523]}}]}